OBJECT_NAME,OBJECT_ID,EPOCH,MEAN_MOTION,ECCENTRICITY,INCLINATION,RA_OF_ASC_NODE,ARG_OF_PERICENTER,MEAN_ANOMALY,EPHEMERIS_TYPE,CLASSIFICATION_TYPE,NORAD_CAT_ID,ELEMENT_SET_NO,REV_AT_EPOCH,BSTAR,MEAN_MOTION_DOT,MEAN_MOTION_DDOT
TANSAT,2016-081A,2026-06-10T14:24:45.565632,14.59945850,.00200517,98.5366,161.6635,333.3961,26.6208,0,U,41898,999,50366,.89789652E-4,.381E-5,0
JILIN-1 03,2017-002B,2026-06-10T14:23:01.048416,15.41416418,.0005948,97.1950,168.7772,175.0355,185.0953,0,U,41914,999,52084,.27849024E-3,.1157E-3,0
CARTOSAT-2D,2017-008A,2026-06-10T15:18:50.501664,15.19288751,.0003644,97.4111,221.0666,259.5935,100.4889,0,U,41948,999,51658,.3286065E-3,.6868E-4,0
CARTOSAT-2E,2017-036C,2026-06-10T14:09:21.623904,15.19272646,.00028705,97.4278,221.5013,350.4086,9.7093,0,U,42767,999,49714,.24621588E-3,.5125E-4,0
D-SAT,2017-036AF,2026-06-09T21:47:09.377088,15.16960688,.00816885,97.5551,139.8429,185.6590,174.3729,0,U,42794,999,48975,.2392715E-3,.5072E-4,0
IRIDIUM 113,2017-039A,2026-06-10T13:01:19.239456,14.34217577,.00023131,86.3966,324.9571,89.7987,270.3474,0,U,42803,999,47023,.10769071E-4,.5E-6,0
NORSAT 2,2017-042D,2026-06-09T23:48:54.263808,15.21787997,.00108491,97.4036,334.5486,79.7911,280.4548,0,U,42828,999,48664,.42301636E-3,.9549E-4,0
TECHNOSAT,2017-042E,2026-06-10T08:01:25.312800,15.04911814,.00187834,97.4262,319.2540,115.9185,244.3980,0,U,42829,999,48567,.21641619E-3,.3016E-4,0
FLYING LAPTOP,2017-042G,2026-06-10T14:04:18.188832,15.01103306,.00192663,97.4659,317.3750,143.2925,216.9624,0,U,42831,999,48546,.27764316E-3,.351E-4,0
WNISAT 1R,2017-042L,2026-06-10T03:53:42.382176,15.01732532,.0010304,97.4830,317.5364,171.3310,188.8095,0,U,42835,999,48545,.16998E-3,.2156E-4,0
LEMUR-2-GREENBERG,2017-042N,2026-06-10T11:40:55.835040,15.31122099,.00091868,97.3820,342.1441,37.1811,323.0064,0,U,42837,999,48736,.47226302E-3,.1415E-3,0
LEMUR-2-FURIAUS,2017-042R,2026-06-10T09:50:59.191584,15.30030493,.00085013,97.3771,340.0388,89.8327,270.3888,0,U,42840,999,48717,.5665163E-3,.16426E-3,0
CORVUS BC2,2017-042X,2026-06-09T21:17:54.816864,15.06248195,.00142076,97.4054,322.5225,132.8249,227.4176,0,U,42846,999,48596,.17768664E-3,.2553E-4,0
CORVUS BC1,2017-042Y,2026-06-09T22:46:59.793888,15.06416487,.0013225,97.4081,323.3911,111.4047,248.8593,0,U,42847,999,48600,.20310757E-3,.2939E-4,0
VRSS-2,2017-060A,2026-06-10T15:13:22.727712,14.81183272,.00183616,97.6519,199.6564,118.3993,241.9073,0,U,42954,999,46748,.8155061E-4,.586E-5,0
MOHAMMED VI-A,2017-070A,2026-06-10T15:21:23.224032,14.77063263,.0001504,97.9555,234.0614,73.2732,286.8643,0,U,43005,999,46301,.17346109E-3,.1173E-4,0
FENGYUN 3D,2017-072A,2026-06-10T14:14:12.645888,14.19737266,.00026566,99.0123,135.8962,72.5601,287.5865,0,U,43010,999,44405,-.90686657E-4,-.238E-5,0
CZ-4C R/B,2017-072C,2026-06-10T12:35:39.337440,14.58775567,.01226619,98.5788,269.3065,171.8969,188.4250,0,U,43012,999,45566,.99863253E-4,.461E-5,0
NOAA 20 (JPSS-1),2017-073A,2026-06-10T14:05:22.968096,14.19510532,.00003899,98.7772,101.1084,51.3333,308.7878,0,U,43013,999,44353,.41119178E-4,.42E-6,0
MAKERSAT 0,2017-073D,2026-06-10T15:33:32.813280,15.31868325,.01056621,97.4634,44.1166,296.7150,62.3306,0,U,43016,999,46546,.45163241E-3,.16498E-3,0
RADFXSAT (FOX-1B),2017-073E,2026-06-10T14:14:01.765536,15.12608951,.01505748,97.4719,28.9430,352.0804,7.8050,0,U,43017,999,46439,.34602019E-3,.7911E-4,0
JILIN-1 04,2017-074A,2026-06-10T14:21:45.500256,15.42276051,.00035802,97.4847,271.0365,200.6263,159.4840,0,U,43022,999,47325,.28814337E-3,.12313E-3,0
JILIN-1 05,2017-074B,2026-06-10T14:20:09.441600,15.33772229,.00038942,97.4854,267.6632,242.4547,117.6300,0,U,43023,999,47299,.22695164E-3,.7332E-4,0
JILIN-1 06,2017-074C,2026-06-10T13:38:11.430240,15.33620758,.00053332,97.4782,264.6515,259.8301,100.2340,0,U,43024,999,47282,.15365723E-3,.4914E-4,0
IRIDIUM 116,2017-083C,2026-06-10T12:24:47.160864,14.34217501,.00018903,86.3959,324.7907,95.1571,264.9840,0,U,43072,999,44321,.9049082E-5,.45E-6,0
IRIDIUM 130,2017-083D,2026-06-10T11:39:07.065216,14.34217448,.00018447,86.3964,325.0788,88.6959,271.4448,0,U,43073,999,44315,-.45525168E-4,-.108E-5,0
LKW-2,2017-084A,2026-06-10T14:29:09.659328,15.26255155,.00002289,97.1198,201.7076,213.1086,147.0139,0,U,43080,999,47068,.30104751E-3,.7733E-4,0
SUPERVIEW-1 03,2018-002A,2026-06-10T14:23:08.115936,15.39032629,.00467952,97.3133,246.4481,203.1714,156.7423,0,U,43099,999,46735,.39629416E-3,.15838E-3,0
CARTOSAT-2F,2018-004A,2026-06-10T14:55:24.112704,15.19168749,.00003858,97.4795,221.3206,309.6447,50.4754,0,U,43111,999,46633,.31429668E-3,.6542E-4,0
LKW-3,2018-006A,2026-06-10T14:25:23.974752,15.35123500,.00025613,97.6603,321.9195,353.8679,6.2532,0,U,43146,999,46770,.3744986E-3,.12689E-3,0
